KUIPER-00053            
1 64513U 25134P   25250.21673497  .00065795  00000+0  17416-2 0  9999
2 64513  51.8783 325.0255 0003840 354.8445   5.2501 15.37755943 12895
KUIPER-00054            
1 64514U 25134Q   25249.50920653  .00040601  00000+0  10811-2 0  9990
2 64514  51.8767 328.5257 0005079  14.7977 345.3158 15.37783439 12781
KUIPER-00055            
1 64515U 25134R   25250.19356830  .00050081  00000+0  13062-2 0  9992
2 64515  51.8795 324.8783 0002577  18.9804 341.1279 15.38335925 12895
KUIPER-00056            
1 64516U 25134S   25250.25001157  .00035235  00000+0  10151-2 0  9999
2 64516  51.8754 325.0986 0005989  19.5015  45.7784 15.35395840  1301
KUIPER-00057            
1 64517U 25134T   25250.25001157  .00010924  00000+0  55323-3 0  9999
2 64517  51.8788 326.9215 0011450  19.6973 207.4097 15.17424278  4910
KUIPER-00058            
1 64518U 25134U   25250.25001157  .00026354  00000+0  88746-3 0  9999
2 64518  51.8770 325.4354 0007439  30.2911 234.2889 15.30561262  5337
KUIPER-00059            
1 64519U 25134V   25250.19686028  .00043289  00000+0  11302-2 0  9998
2 64519  51.8778 324.8959 0003777  18.0811 342.0310 15.38365183 12892
KUIPER-00060            
1 64520U 25134W   25250.20535576  .00038802  00000+0  10190-2 0  9992
2 64520  51.8782 324.9531 0003969   7.9551 352.1498 15.38235526 12882
